{
  "type": "FeatureCollection",
  "features": [
    {
      "type": "Feature",
      "properties": {
        "norad_id": 40010,
        "name": "KAZEOSAT 2",
        "group": "resource",
        "lat": 63.676450237862085,
        "lon": 32.96934652399875,
        "alt_km": 604.6739178614462,
        "timestamp": "2025-12-19T10:50:00.848756+00:00",
        "meta_object_name": "KAZEOSAT 2",
        "meta_object_id": "2014-033A",
        "meta_epoch": "2025-12-18T22:59:50.368704",
        "meta_mean_motion": 14.8517952,
        "meta_eccentricity": 0.00081163,
        "meta_inclination": 97.5502,
        "meta_ra_of_asc_node": 196.9514,
        "meta_arg_of_pericenter": 184.6213,
        "meta_mean_anomaly": 175.493,
        "meta_ephemeris_type": 0,
        "meta_classification_type": "U",
        "meta_norad_cat_id": 40010,
        "meta_element_set_no": 999,
        "meta_rev_at_epoch": 62220,
        "meta_bstar": 9.5634658e-05,
        "meta_mean_motion_dot": 7.69e-06,
        "meta_mean_motion_ddot": 0,
        "tle_line1": "1 40010U 14033A   25352.95822186  .00000769  00000+0  95635-4 0  9997",
        "tle_line2": "2 40010  97.5502 196.9514 0008116 184.6213 175.4930 14.85179520622204"
      },
      "geometry": {
        "type": "Point",
        "coordinates": [
          32.96934652399875,
          63.676450237862085
        ]
      }
    },
    {
      "type": "Feature",
      "properties": {
        "norad_id": 40011,
        "name": "HODOYOSHI-4",
        "group": "resource",
        "lat": -76.97937400156533,
        "lon": -32.94348183634514,
        "alt_km": 610.5083415310046,
        "timestamp": "2025-12-19T10:50:00.848766+00:00",
        "meta_object_name": "HODOYOSHI-4",
        "meta_object_id": "2014-033B",
        "meta_epoch": "2025-12-18T22:22:16.458816",
        "meta_mean_motion": 14.87502516,
        "meta_eccentricity": 0.00236099,
        "meta_inclination": 97.5406,
        "meta_ra_of_asc_node": 181.5102,
        "meta_arg_of_pericenter": 179.9029,
        "meta_mean_anomaly": 180.2197,
        "meta_ephemeris_type": 0,
        "meta_classification_type": "U",
        "meta_norad_cat_id": 40011,
        "meta_element_set_no": 999,
        "meta_rev_at_epoch": 62200,
        "meta_bstar": 0.0001547358,
        "meta_mean_motion_dot": 1.358e-05,
        "meta_mean_motion_ddot": 0,
        "tle_line1": "1 40011U 14033B   25352.93213494  .00001358  00000+0  15474-3 0  9999",
        "tle_line2": "2 40011  97.5406 181.5102 0023609 179.9029 180.2197 14.87502516622001"
      },
      "geometry": {
        "type": "Point",
        "coordinates": [
          -32.94348183634514,
          -76.97937400156533
        ]
      }
    },
    {
      "type": "Feature",
      "properties": {
        "norad_id": 40013,
        "name": "DEIMOS-2",
        "group": "resource",
        "lat": -8.916044886450015,
        "lon": 47.828218652129884,
        "alt_km": 592.5996884353381,
        "timestamp": "2025-12-19T10:50:00.848776+00:00",
        "meta_object_name": "DEIMOS-2",
        "meta_object_id": "2014-033D",
        "meta_epoch": "2025-12-18T22:43:51.110112",
        "meta_mean_motion": 14.93000264,
        "meta_eccentricity": 0.00013584,
        "meta_inclination": 97.6067,
        "meta_ra_of_asc_node": 228.542,
        "meta_arg_of_pericenter": 107.263,
        "meta_mean_anomaly": 252.8739,
        "meta_ephemeris_type": 0,
        "meta_classification_type": "U",
        "meta_norad_cat_id": 40013,
        "meta_element_set_no": 999,
        "meta_rev_at_epoch": 61082,
        "meta_bstar": 0.0002427649,
        "meta_mean_motion_dot": 2.469e-05,
        "meta_mean_motion_ddot": 0,
        "tle_line1": "1 40013U 14033D   25352.94711933  .00002469  00000+0  24276-3 0  9997",
        "tle_line2": "2 40013  97.6067 228.5420 0001358 107.2630 252.8739 14.93000264610826"
      },
      "geometry": {
        "type": "Point",
        "coordinates": [
          47.828218652129884,
          -8.916044886450015
        ]
      }
    },
    {
      "type": "Feature",
      "properties": {
        "norad_id": 40015,
        "name": "HODOYOSHI-3",
        "group": "resource",
        "lat": 59.480747993046336,
        "lon": -7.878562272384588,
        "alt_km": 614.3287268303156,
        "timestamp": "2025-12-19T10:50:00.848786+00:00",
        "meta_object_name": "HODOYOSHI-3",
        "meta_object_id": "2014-033F",
        "meta_epoch": "2025-12-18T22:58:21.507168",
        "meta_mean_motion": 14.84827132,
        "meta_eccentricity": 0.00321499,
        "meta_inclination": 97.6203,
        "meta_ra_of_asc_node": 158.522,
        "meta_arg_of_pericenter": 226.7251,
        "meta_mean_anomaly": 133.1281,
        "meta_ephemeris_type": 0,
        "meta_classification_type": "U",
        "meta_norad_cat_id": 40015,
        "meta_element_set_no": 999,
        "meta_rev_at_epoch": 62087,
        "meta_bstar": 0.00015428862,
        "meta_mean_motion_dot": 1.27e-05,
        "meta_mean_motion_ddot": 0,
        "tle_line1": "1 40015U 14033F   25352.95719337  .00001270  00000+0  15429-3 0  9995",
        "tle_line2": "2 40015  97.6203 158.5220 0032149 226.7251 133.1281 14.84827132620878"
      },
      "geometry": {
        "type": "Point",
        "coordinates": [
          -7.878562272384588,
          59.480747993046336
        ]
      }
    },
    {
      "type": "Feature",
      "properties": {
        "norad_id": 40053,
        "name": "SPOT 7",
        "group": "resource",
        "lat": -18.012957479853565,
        "lon": 58.023537148902875,
        "alt_km": 695.9814334354387,
        "timestamp": "2025-12-19T10:50:00.848797+00:00",
        "meta_object_name": "SPOT 7",
        "meta_object_id": "2014-034A",
        "meta_epoch": "2025-12-18T23:24:31.813344",
        "meta_mean_motion": 14.60741449,
        "meta_eccentricity": 0.00015442,
        "meta_inclination": 98.0905,
        "meta_ra_of_asc_node": 54.9074,
        "meta_arg_of_pericenter": 83.7619,
        "meta_mean_anomaly": 276.3758,
        "meta_ephemeris_type": 0,
        "meta_classification_type": "U",
        "meta_norad_cat_id": 40053,
        "meta_element_set_no": 999,
        "meta_rev_at_epoch": 61082,
        "meta_bstar": 0.00010171102,
        "meta_mean_motion_dot": 4.5e-06,
        "meta_mean_motion_ddot": 0,
        "tle_line1": "1 40053U 14034A   25352.97536821  .00000450  00000+0  10171-3 0  9993",
        "tle_line2": "2 40053  98.0905  54.9074 0001544  83.7619 276.3758 14.60741449610827"
      },
      "geometry": {
        "type": "Point",
        "coordinates": [
          58.023537148902875,
          -18.012957479853565
        ]
      }
    },
    {
      "type": "Feature",
      "properties": {
        "norad_id": 40072,
        "name": "SKYSAT-B",
        "group": "resource",
        "lat": -18.906160682300367,
        "lon": 114.62444747179806,
        "alt_km": 609.629161395108,
        "timestamp": "2025-12-19T10:50:00.848806+00:00",
        "meta_object_name": "SKYSAT-B",
        "meta_object_id": "2014-037D",
        "meta_epoch": "2025-12-18T19:24:39.195072",
        "meta_mean_motion": 14.87348069,
        "meta_eccentricity": 0.00065151,
        "meta_inclination": 98.3619,
        "meta_ra_of_asc_node": 296.8355,
        "meta_arg_of_pericenter": 133.0045,
        "meta_mean_anomaly": 227.1716,
        "meta_ephemeris_type": 0,
        "meta_classification_type": "U",
        "meta_norad_cat_id": 40072,
        "meta_element_set_no": 999,
        "meta_rev_at_epoch": 61914,
        "meta_bstar": 0.00015223593,
        "meta_mean_motion_dot": 1.314e-05,
        "meta_mean_motion_ddot": 0,
        "tle_line1": "1 40072U 14037D   25352.80878698  .00001314  00000+0  15224-3 0  9994",
        "tle_line2": "2 40072  98.3619 296.8355 0006515 133.0045 227.1716 14.87348069619149"
      },
      "geometry": {
        "type": "Point",
        "coordinates": [
          114.62444747179806,
          -18.906160682300367
        ]
      }
    },
    {
      "type": "Feature",
      "properties": {
        "norad_id": 40115,
        "name": "WORLDVIEW-3 (WV-3)",
        "group": "resource",
        "lat": 40.10580991497978,
        "lon": 58.95159266105867,
        "alt_km": 611.6834080795898,
        "timestamp": "2025-12-19T10:50:00.848816+00:00",
        "meta_object_name": "WORLDVIEW-3 (WV-3)",
        "meta_object_id": "2014-048A",
        "meta_epoch": "2025-12-18T21:42:40.567680",
        "meta_mean_motion": 14.84661456,
        "meta_eccentricity": 0.00017113,
        "meta_inclination": 97.8774,
        "meta_ra_of_asc_node": 65.108,
        "meta_arg_of_pericenter": 138.8396,
        "meta_mean_anomaly": 221.2947,
        "meta_ephemeris_type": 0,
        "meta_classification_type": "U",
        "meta_norad_cat_id": 40115,
        "meta_element_set_no": 999,
        "meta_rev_at_epoch": 61515,
        "meta_bstar": 0.00010574139,
        "meta_mean_motion_dot": 8.41e-06,
        "meta_mean_motion_ddot": 0,
        "tle_line1": "1 40115U 14048A   25352.90463620  .00000841  00000+0  10574-3 0  9997",
        "tle_line2": "2 40115  97.8774  65.1080 0001711 138.8396 221.2947 14.84661456615153"
      },
      "geometry": {
        "type": "Point",
        "coordinates": [
          58.95159266105867,
          40.10580991497978
        ]
      }
    }
  ]
}